{
"type": "FeatureCollection",
"name": "budapest_h3_7_overlap",
"crs": { "type": "name", "properties": { "name": "urn:ogc:def:crs:OGC:1.3:CRS84" } },
"features": [
{ "type": "Feature", "properties": { "h3": "871e03448ffffff" }, "geometry": { "type": "Polygon", "coordinates": [ [ [ 18.961325746855223, 47.595743957976211 ], [ 18.961255525324173, 47.583373494626741 ], [ 18.978019841994552, 47.577382941640316 ], [ 18.994857586201242, 47.583761931755276 ], [ 18.994933205954517, 47.59613263875557 ], [ 18.978165683125741, 47.602124112498402 ], [ 18.961325746855223, 47.595743957976211 ] ] ] } },
{ "type": "Feature", "properties": { "h3": "871e03449ffffff" }, "geometry": { "type": "Polygon", "coordinates": [ [ [ 18.994933205954517, 47.59613263875557 ], [ 18.994857586201242, 47.583761931755276 ], [ 19.011620250455916, 47.577766360003068 ], [ 19.028461733748557, 47.584140573274688 ], [ 19.028542752342407, 47.596511521165318 ], [ 19.011776888652854, 47.602508015402471 ], [ 18.994933205954517, 47.59613263875557 ] ] ] } },
{ "type": "Feature", "properties": { "h3": "871e0344affffff" }, "geometry": { "type": "Polygon", "coordinates": [ [ [ 18.944421531351622, 47.576989729946789 ], [ 18.944354041210232, 47.564616577593391 ], [ 18.961115149887199, 47.558626944181086 ], [ 18.977946956544425, 47.565009544056139 ], [ 18.978019841994552, 47.577382941640316 ], [ 18.961255525324173, 47.583373494626741 ], [ 18.944421531351622, 47.576989729946789 ] ] ] } },
{ "type": "Feature", "properties": { "h3": "871e0344bffffff" }, "geometry": { "type": "Polygon", "coordinates": [ [ [ 18.978019841994552, 47.577382941640316 ], [ 18.977946956544425, 47.565009544056139 ], [ 18.994706419520387, 47.559014893608882 ], [ 19.011541969073612, 47.565392719949102 ], [ 19.011620250455916, 47.577766360003068 ], [ 18.994857586201242, 47.583761931755276 ], [ 18.978019841994552, 47.577382941640316 ] ] ] } },
{ "type": "Feature", "properties": { "h3": "871e0344effffff" }, "geometry": { "type": "Polygon", "coordinates": [ [ [ 18.927720397973456, 47.595345480628623 ], [ 18.927655574035224, 47.582975263689974 ], [ 18.944421531351622, 47.576989729946789 ], [ 18.961255525324173, 47.583373494626741 ], [ 18.961325746855223, 47.595743957976211 ], [ 18.944556576664795, 47.601730410743087 ], [ 18.927720397973456, 47.595345480628623 ] ] ] } },
{ "type": "Feature", "properties": { "h3": "871e03459ffffff" }, "geometry": { "type": "Polygon", "coordinates": [ [ [ 18.927525988584172, 47.558229206466407 ], [ 18.927461227051321, 47.545853367638166 ], [ 18.944219125905686, 47.539864652617808 ], [ 18.9610449959596, 47.546250858541597 ], [ 18.961115149887199, 47.558626944181086 ], [ 18.944354041210232, 47.564616577593391 ], [ 18.927525988584172, 47.558229206466407 ] ] ] } },
{ "type": "Feature", "properties": { "h3": "871e0345bffffff" }, "geometry": { "type": "Polygon", "coordinates": [ [ [ 18.910639114816327, 47.53946239377828 ], [ 18.910577079112688, 47.527083871007797 ], [ 18.927331766320943, 47.521096073197334 ], [ 18.944151700721683, 47.527485881455092 ], [ 18.944219125905686, 47.539864652617808 ], [ 18.927461227051321, 47.545853367638166 ], [ 18.910639114816327, 47.53946239377828 ] ] ] } },
{ "type": "Feature", "properties": { "h3": "871e0345dffffff" }, "geometry": { "type": "Polygon", "coordinates": [ [ [ 18.910825341435135, 47.576586726732593 ], [ 18.910763245967981, 47.564213822370384 ], [ 18.927525988584172, 47.558229206466407 ], [ 18.944354041210232, 47.564616577593391 ], [ 18.944421531351622, 47.576989729946789 ], [ 18.927655574035224, 47.582975263689974 ], [ 18.910825341435135, 47.576586726732593 ] ] ] } },
{ "type": "Feature", "properties": { "h3": "871e03600ffffff" }, "geometry": { "type": "Polygon", "coordinates": [ [ [ 19.229223072370679, 47.487160464067721 ], [ 19.229109975544276, 47.474771272247636 ], [ 19.245836637612655, 47.468731154214147 ], [ 19.262679539652758, 47.475079295908834 ], [ 19.262798023746097, 47.487468710441469 ], [ 19.246068218403508, 47.493509761075245 ], [ 19.229223072370679, 47.487160464067721 ] ] ] } },
{ "type": "Feature", "properties": { "h3": "871e03601ffffff" }, "geometry": { "type": "Polygon", "coordinates": [ [ [ 19.262798023746097, 47.487468710441469 ], [ 19.262679539652758, 47.475079295908834 ], [ 19.279404460598379, 47.469034175154825 ], [ 19.296251002029486, 47.475377535144901 ], [ 19.296374873917546, 47.487767169620909 ], [ 19.27964681645388, 47.493813224671968 ], [ 19.262798023746097, 47.487468710441469 ] ] ] } },
{ "type": "Feature", "properties": { "h3": "871e03602ffffff" }, "geometry": { "type": "Polygon", "coordinates": [ [ [ 19.212270724071793, 47.46841835105252 ], [ 19.212160373773326, 47.456026468066064 ], [ 19.228883890670602, 47.449987281475948 ], [ 19.245720902907188, 47.456339046937082 ], [ 19.245836637612655, 47.468731154214147 ], [ 19.229109975544276, 47.474771272247636 ], [ 19.212270724071793, 47.46841835105252 ] ] ] } },
{ "type": "Feature", "properties": { "h3": "871e03603ffffff" }, "geometry": { "type": "Polygon", "coordinates": [ [ [ 19.245836637612655, 47.468731154214147 ], [ 19.245720902907188, 47.456339046937082 ], [ 19.262442685429146, 47.450294859325446 ], [ 19.279283340952968, 47.456641846356796 ], [ 19.279404460598379, 47.469034175154825 ], [ 19.262679539652758, 47.475079295908834 ], [ 19.245836637612655, 47.468731154214147 ] ] ] } },
{ "type": "Feature", "properties": { "h3": "871e03604ffffff" }, "geometry": { "type": "Polygon", "coordinates": [ [ [ 19.212601987392969, 47.505582783929569 ], [ 19.21249153086459, 47.493196509719731 ], [ 19.229223072370679, 47.487160464067721 ], [ 19.246068218403508, 47.493509761075245 ], [ 19.246184064524641, 47.505896259188304 ], [ 19.229449374889754, 47.511933236899083 ], [ 19.212601987392969, 47.505582783929569 ] ] ] } },
{ "type": "Feature", "properties": { "h3": "871e03605ffffff" }, "geometry": { "type": "Polygon", "coordinates": [ [ [ 19.246184064524641, 47.505896259188304 ], [ 19.246068218403508, 47.493509761075245 ], [ 19.262798023746097, 47.487468710441469 ], [ 19.27964681645388, 47.493813224671968 ], [ 19.279768052701353, 47.506199943920052 ], [ 19.263035105987246, 47.512241928311191 ], [ 19.246184064524641, 47.505896259188304 ] ] ] } },
{ "type": "Feature", "properties": { "h3": "871e03606ffffff" }, "geometry": { "type": "Polygon", "coordinates": [ [ [ 19.195650042686715, 47.486842432143966 ], [ 19.195542332588477, 47.474453465805084 ], [ 19.212270724071793, 47.46841835105252 ], [ 19.229109975544276, 47.474771272247636 ], [ 19.229223072370679, 47.487160464067721 ], [ 19.21249153086459, 47.493196509719731 ], [ 19.195650042686715, 47.486842432143966 ] ] ] } },
{ "type": "Feature", "properties": { "h3": "871e03608ffffff" }, "geometry": { "type": "Polygon", "coordinates": [ [ [ 19.312974170146177, 47.46932741224051 ], [ 19.31284766503887, 47.456934864691668 ], [ 19.329565943716219, 47.45088067674476 ], [ 19.346413852285391, 47.457218100327246 ], [ 19.346545743365493, 47.469610863856232 ], [ 19.329824339782249, 47.475665988331087 ], [ 19.312974170146177, 47.46932741224051 ] ] ] } },
{ "type": "Feature", "properties": { "h3": "871e0360cffffff" }, "geometry": { "type": "Polygon", "coordinates": [ [ [ 19.296374873917546, 47.487767169620909 ], [ 19.296251002029486, 47.475377535144901 ], [ 19.312974170146177, 47.46932741224051 ], [ 19.329824339782249, 47.475665988331087 ], [ 19.32995359998176, 47.488055839980809 ], [ 19.313227302110821, 47.494106898874847 ], [ 19.296374873917546, 47.487767169620909 ] ] ] } },
{ "type": "Feature", "properties": { "h3": "871e0360dffffff" }, "geometry": { "type": "Polygon", "coordinates": [ [ [ 19.32995359998176, 47.488055839980809 ], [ 19.329824339782249, 47.475665988331087 ], [ 19.346545743365493, 47.469610863856232 ], [ 19.363399530011097, 47.475944653861696 ], [ 19.363534179027731, 47.48833471991496 ], [ 19.346809652461651, 47.494390782067903 ], [ 19.32995359998176, 47.488055839980809 ] ] ] } },
{ "type": "Feature", "properties": { "h3": "871e0360effffff" }, "geometry": { "type": "Polygon", "coordinates": [ [ [ 19.279404460598379, 47.469034175154825 ], [ 19.279283340952968, 47.456641846356796 ], [ 19.296003377401082, 47.450592658289636 ], [ 19.31284766503887, 47.456934864691668 ], [ 19.312974170146177, 47.46932741224051 ], [ 19.296251002029486, 47.475377535144901 ], [ 19.279404460598379, 47.469034175154825 ] ] ] } },
{ "type": "Feature", "properties": { "h3": "871e03610ffffff" }, "geometry": { "type": "Polygon", "coordinates": [ [ [ 19.16177208423521, 47.449342795711139 ], [ 19.161669858696865, 47.436948452741326 ], [ 19.178391944475941, 47.430915196310004 ], [ 19.195219409452076, 47.437275354775238 ], [ 19.195327015987779, 47.449669926383898 ], [ 19.178601776415366, 47.455704111396258 ], [ 19.16177208423521, 47.449342795711139 ] ] ] } },
{ "type": "Feature", "properties": { "h3": "871e03611ffffff" }, "geometry": { "type": "Polygon", "coordinates": [ [ [ 19.195327015987779, 47.449669926383898 ], [ 19.195219409452076, 47.437275354775238 ], [ 19.211939779287125, 47.431237098471591 ], [ 19.228770902588419, 47.437592483998046 ], [ 19.228883890670602, 47.449987281475948 ], [ 19.212160373773326, 47.456026468066064 ], [ 19.195327015987779, 47.449669926383898 ] ] ] } },
{ "type": "Feature", "properties": { "h3": "871e03612ffffff" }, "geometry": { "type": "Polygon", "coordinates": [ [ [ 19.144846063187401, 47.430583523559939 ], [ 19.14474657578225, 47.418186496095274 ], [ 19.161465505891385, 47.412154167085895 ], [ 19.178287078939643, 47.418517938626835 ], [ 19.178391944475941, 47.430915196310004 ], [ 19.161669858696865, 47.436948452741326 ], [ 19.144846063187401, 47.430583523559939 ] ] ] } },
{ "type": "Feature", "properties": { "h3": "871e03613ffffff" }, "geometry": { "type": "Polygon", "coordinates": [ [ [ 19.178391944475941, 47.430915196310004 ], [ 19.178287078939643, 47.418517938626835 ], [ 19.195004299827104, 47.4124806114528 ], [ 19.211829535065377, 47.418839613340012 ], [ 19.211939779287125, 47.431237098471591 ], [ 19.195219409452076, 47.437275354775238 ], [ 19.178391944475941, 47.430915196310004 ] ] ] } },
{ "type": "Feature", "properties": { "h3": "871e03614ffffff" }, "geometry": { "type": "Polygon", "coordinates": [ [ [ 19.145144716816745, 47.467763404697585 ], [ 19.145045133689322, 47.455371978599267 ], [ 19.16177208423521, 47.449342795711139 ], [ 19.178601776415366, 47.455704111396258 ], [ 19.178706742850814, 47.468095767322957 ], [ 19.161976633661908, 47.474125878244038 ], [ 19.145144716816745, 47.467763404697585 ] ] ] } },
{ "type": "Feature", "properties": { "h3": "871e03615ffffff" }, "geometry": { "type": "Polygon", "coordinates": [ [ [ 19.178706742850814, 47.468095767322957 ], [ 19.178601776415366, 47.455704111396258 ], [ 19.195327015987779, 47.449669926383898 ], [ 19.212160373773326, 47.456026468066064 ], [ 19.212270724071793, 47.46841835105252 ], [ 19.195542332588477, 47.474453465805084 ], [ 19.178706742850814, 47.468095767322957 ] ] ] } },
{ "type": "Feature", "properties": { "h3": "871e03616ffffff" }, "geometry": { "type": "Polygon", "coordinates": [ [ [ 19.128219118259373, 47.449005891138434 ], [ 19.128122273158247, 47.436611779576573 ], [ 19.144846063187401, 47.430583523559939 ], [ 19.161669858696865, 47.436948452741326 ], [ 19.16177208423521, 47.449342795711139 ], [ 19.145045133689322, 47.455371978599267 ], [ 19.128219118259373, 47.449005891138434 ] ] ] } },
{ "type": "Feature", "properties": { "h3": "871e03618ffffff" }, "geometry": { "type": "Polygon", "coordinates": [ [ [ 19.245489544786896, 47.431549228374166 ], [ 19.245373921336437, 47.41915151856481 ], [ 19.262087688727519, 47.413104196715146 ], [ 19.278920214921854, 47.419453652650191 ], [ 19.279041218133361, 47.4318515843662 ], [ 19.262324315262369, 47.437899838748464 ], [ 19.245489544786896, 47.431549228374166 ] ] ] } },
{ "type": "Feature", "properties": { "h3": "871e0361cffffff" }, "geometry": { "type": "Polygon", "coordinates": [ [ [ 19.228883890670602, 47.449987281475948 ], [ 19.228770902588419, 47.437592483998046 ], [ 19.245489544786896, 47.431549228374166 ], [ 19.262324315262369, 47.437899838748464 ], [ 19.262442685429146, 47.450294859325446 ], [ 19.245720902907188, 47.456339046937082 ], [ 19.228883890670602, 47.449987281475948 ] ] ] } },
{ "type": "Feature", "properties": { "h3": "871e0361dffffff" }, "geometry": { "type": "Polygon", "coordinates": [ [ [ 19.262442685429146, 47.450294859325446 ], [ 19.262324315262369, 47.437899838748464 ], [ 19.279041218133361, 47.4318515843662 ], [ 19.295879624622543, 47.438197417384202 ], [ 19.296003377401082, 47.450592658289636 ], [ 19.279283340952968, 47.456641846356796 ], [ 19.262442685429146, 47.450294859325446 ] ] ] } },
{ "type": "Feature", "properties": { "h3": "871e0361effffff" }, "geometry": { "type": "Polygon", "coordinates": [ [ [ 19.211939779287125, 47.431237098471591 ], [ 19.211829535065377, 47.418839613340012 ], [ 19.228545035046313, 47.412797288549307 ], [ 19.245373921336437, 47.41915151856481 ], [ 19.245489544786896, 47.431549228374166 ], [ 19.228770902588419, 47.437592483998046 ], [ 19.211939779287125, 47.431237098471591 ] ] ] } },
{ "type": "Feature", "properties": { "h3": "871e03620ffffff" }, "geometry": { "type": "Polygon", "coordinates": [ [ [ 19.212933569710728, 47.542730377257939 ], [ 19.212823006798974, 47.530349718431367 ], [ 19.22956258061739, 47.524316816442173 ], [ 19.246415868307686, 47.530663641108951 ], [ 19.246531826005402, 47.543044523451108 ], [ 19.229789101096308, 47.549078358119687 ], [ 19.212933569710728, 47.542730377257939 ] ] ] } },
{ "type": "Feature", "properties": { "h3": "871e03621ffffff" }, "geometry": { "type": "Polygon", "coordinates": [ [ [ 19.246531826005402, 47.543044523451108 ], [ 19.246415868307686, 47.530663641108951 ], [ 19.263153704171643, 47.524625730180055 ], [ 19.280010641929334, 47.530967767724633 ], [ 19.280131994947315, 47.543348870815663 ], [ 19.263391014759751, 47.549387716122141 ], [ 19.246531826005402, 47.543044523451108 ] ] ] } },
{ "type": "Feature", "properties": { "h3": "871e03622ffffff" }, "geometry": { "type": "Polygon", "coordinates": [ [ [ 19.195973380372351, 47.523998108851224 ], [ 19.195865566562002, 47.511614754401087 ], [ 19.212601987392969, 47.505582783929569 ], [ 19.229449374889754, 47.511933236899083 ], [ 19.22956258061739, 47.524316816442173 ], [ 19.212823006798974, 47.530349718431367 ], [ 19.195973380372351, 47.523998108851224 ] ] ] } },
{ "type": "Feature", "properties": { "h3": "871e03623ffffff" }, "geometry": { "type": "Polygon", "coordinates": [ [ [ 19.22956258061739, 47.524316816442173 ], [ 19.229449374889754, 47.511933236899083 ], [ 19.246184064524641, 47.505896259188304 ], [ 19.263035105987246, 47.512241928311191 ], [ 19.263153704171643, 47.524625730180055 ], [ 19.246415868307686, 47.530663641108951 ], [ 19.22956258061739, 47.524316816442173 ] ] ] } },
{ "type": "Feature", "properties": { "h3": "871e03626ffffff" }, "geometry": { "type": "Polygon", "coordinates": [ [ [ 19.179337249004501, 47.542406433892239 ], [ 19.179232080333385, 47.530026001347466 ], [ 19.195973380372351, 47.523998108851224 ], [ 19.212823006798974, 47.530349718431367 ], [ 19.212933569710728, 47.542730377257939 ], [ 19.196189111821653, 47.548759200731233 ], [ 19.179337249004501, 47.542406433892239 ] ] ] } },
{ "type": "Feature", "properties": { "h3": "871e03628ffffff" }, "geometry": { "type": "Polygon", "coordinates": [ [ [ 19.296746728106523, 47.524924848419047 ], [ 19.296622736936921, 47.512540826992129 ], [ 19.313353929007203, 47.506493836489263 ], [ 19.330212244813442, 47.512829931315622 ], [ 19.330341629485584, 47.525214169532397 ], [ 19.313607304725881, 47.531262096641882 ], [ 19.296746728106523, 47.524924848419047 ] ] ] } },
{ "type": "Feature", "properties": { "h3": "871e0362affffff" }, "geometry": { "type": "Polygon", "coordinates": [ [ [ 19.279768052701353, 47.506199943920052 ], [ 19.27964681645388, 47.493813224671968 ], [ 19.296374873917546, 47.487767169620909 ], [ 19.313227302110821, 47.494106898874847 ], [ 19.313353929007203, 47.506493836489263 ], [ 19.296622736936921, 47.512540826992129 ], [ 19.279768052701353, 47.506199943920052 ] ] ] } },
{ "type": "Feature", "properties": { "h3": "871e0362bffffff" }, "geometry": { "type": "Polygon", "coordinates": [ [ [ 19.313353929007203, 47.506493836489263 ], [ 19.313227302110821, 47.494106898874847 ], [ 19.32995359998176, 47.488055839980809 ], [ 19.346809652461651, 47.494390782067903 ], [ 19.34694167051849, 47.50677793527948 ], [ 19.330212244813442, 47.512829931315622 ], [ 19.313353929007203, 47.506493836489263 ] ] ] } },
{ "type": "Feature", "properties": { "h3": "871e0362effffff" }, "geometry": { "type": "Polygon", "coordinates": [ [ [ 19.263153704171643, 47.524625730180055 ], [ 19.263035105987246, 47.512241928311191 ], [ 19.279768052701353, 47.506199943920052 ], [ 19.296622736936921, 47.512540826992129 ], [ 19.296746728106523, 47.524924848419047 ], [ 19.280010641929334, 47.530967767724633 ], [ 19.263153704171643, 47.524625730180055 ] ] ] } },
{ "type": "Feature", "properties": { "h3": "871e03630ffffff" }, "geometry": { "type": "Polygon", "coordinates": [ [ [ 19.145443657889224, 47.504926468468476 ], [ 19.14534397890133, 47.492540650367587 ], [ 19.162078957581802, 47.486514616333544 ], [ 19.178916776734173, 47.492873472259468 ], [ 19.179021844214461, 47.505259519798408 ], [ 19.162283703913634, 47.511286482481594 ], [ 19.145443657889224, 47.504926468468476 ] ] ] } },
{ "type": "Feature", "properties": { "h3": "871e03631ffffff" }, "geometry": { "type": "Polygon", "coordinates": [ [ [ 19.179021844214461, 47.505259519798408 ], [ 19.178916776734173, 47.492873472259468 ], [ 19.195650042686715, 47.486842432143966 ], [ 19.21249153086459, 47.493196509719731 ], [ 19.212601987392969, 47.505582783929569 ], [ 19.195865566562002, 47.511614754401087 ], [ 19.179021844214461, 47.505259519798408 ] ] ] } },
{ "type": "Feature", "properties": { "h3": "871e03632ffffff" }, "geometry": { "type": "Polygon", "coordinates": [ [ [ 19.1285098399355, 47.486177018318834 ], [ 19.128412901633073, 47.473788511246326 ], [ 19.145144716816745, 47.467763404697585 ], [ 19.161976633661908, 47.474125878244038 ], [ 19.162078957581802, 47.486514616333544 ], [ 19.14534397890133, 47.492540650367587 ], [ 19.1285098399355, 47.486177018318834 ] ] ] } },
{ "type": "Feature", "properties": { "h3": "871e03633ffffff" }, "geometry": { "type": "Polygon", "coordinates": [ [ [ 19.162078957581802, 47.486514616333544 ], [ 19.161976633661908, 47.474125878244038 ], [ 19.178706742850814, 47.468095767322957 ], [ 19.195542332588477, 47.474453465805084 ], [ 19.195650042686715, 47.486842432143966 ], [ 19.178916776734173, 47.492873472259468 ], [ 19.162078957581802, 47.486514616333544 ] ] ] } },
{ "type": "Feature", "properties": { "h3": "871e03634ffffff" }, "geometry": { "type": "Polygon", "coordinates": [ [ [ 19.128800841484615, 47.523331318788685 ], [ 19.128703809846282, 47.510948422824029 ], [ 19.145443657889224, 47.504926468468476 ], [ 19.162283703913634, 47.511286482481594 ], [ 19.162386126357173, 47.52366960907208 ], [ 19.145643111833145, 47.529692491531954 ], [ 19.128800841484615, 47.523331318788685 ] ] ] } },
{ "type": "Feature", "properties": { "h3": "871e03635ffffff" }, "geometry": { "type": "Polygon", "coordinates": [ [ [ 19.162386126357173, 47.52366960907208 ], [ 19.162283703913634, 47.511286482481594 ], [ 19.179021844214461, 47.505259519798408 ], [ 19.195865566562002, 47.511614754401087 ], [ 19.195973380372351, 47.523998108851224 ], [ 19.179232080333385, 47.530026001347466 ], [ 19.162386126357173, 47.52366960907208 ] ] ] } },
{ "type": "Feature", "properties": { "h3": "871e03636ffffff" }, "geometry": { "type": "Polygon", "coordinates": [ [ [ 19.111867451309319, 47.504583631632435 ], [ 19.111773160247107, 47.492198045736224 ], [ 19.1285098399355, 47.486177018318834 ], [ 19.14534397890133, 47.492540650367587 ], [ 19.145443657889224, 47.504926468468476 ], [ 19.128703809846282, 47.510948422824029 ], [ 19.111867451309319, 47.504583631632435 ] ] ] } },
{ "type": "Feature", "properties": { "h3": "871e03680ffffff" }, "geometry": { "type": "Polygon", "coordinates": [ [ [ 19.110737951217271, 47.355833347167092 ], [ 19.11064402207894, 47.34342537073281 ], [ 19.127348628437467, 47.337391748510633 ], [ 19.144150320227268, 47.3437651787264 ], [ 19.144249616601495, 47.356173388931168 ], [ 19.127541853811415, 47.362207935656478 ], [ 19.110737951217271, 47.355833347167092 ] ] ] } },
{ "type": "Feature", "properties": { "h3": "871e03681ffffff" }, "geometry": { "type": "Polygon", "coordinates": [ [ [ 19.144249616601495, 47.356173388931168 ], [ 19.144150320227268, 47.3437651787264 ], [ 19.160853232512338, 47.337726565724353 ], [ 19.177658590772257, 47.344095237218305 ], [ 19.17776325494621, 47.356503678421056 ], [ 19.16105719292484, 47.362543217638816 ], [ 19.144249616601495, 47.356173388931168 ] ] ] } },
{ "type": "Feature", "properties": { "h3": "871e03684ffffff" }, "geometry": { "type": "Polygon", "coordinates": [ [ [ 19.094119788892311, 47.374267966489171 ], [ 19.09402849932032, 47.361862900864288 ], [ 19.110737951217271, 47.355833347167092 ], [ 19.127541853811415, 47.362207935656478 ], [ 19.12763851291276, 47.37461323624202 ], [ 19.110925899750406, 47.38064371388441 ], [ 19.094119788892311, 47.374267966489171 ] ] ] } },
{ "type": "Feature", "properties": { "h3": "871e03685ffffff" }, "geometry": { "type": "Polygon", "coordinates": [ [ [ 19.12763851291276, 47.37461323624202 ], [ 19.127541853811415, 47.362207935656478 ], [ 19.144249616601495, 47.356173388931168 ], [ 19.16105719292484, 47.362543217638816 ], [ 19.161159222125232, 47.37494875041353 ], [ 19.144448304765994, 47.38098422279846 ], [ 19.12763851291276, 47.37461323624202 ] ] ] } },
{ "type": "Feature", "properties": { "h3": "871e036a0ffffff" }, "geometry": { "type": "Polygon", "coordinates": [ [ [ 19.094393833116591, 47.41147198327684 ], [ 19.094302455776383, 47.399072508437733 ], [ 19.111019919174129, 47.393046102680159 ], [ 19.127831924018537, 47.399418247720007 ], [ 19.127928676052719, 47.411817957127838 ], [ 19.11120804840818, 47.417845287434311 ], [ 19.094393833116591, 47.41147198327684 ] ] ] } },
{ "type": "Feature", "properties": { "h3": "871e036a1ffffff" }, "geometry": { "type": "Polygon", "coordinates": [ [ [ 19.127928676052719, 47.411817957127838 ], [ 19.127831924018537, 47.399418247720007 ], [ 19.144547696586862, 47.393386844973591 ], [ 19.16136337859281, 47.399754225879384 ], [ 19.161465505891385, 47.412154167085895 ], [ 19.14474657578225, 47.418186496095274 ], [ 19.127928676052719, 47.411817957127838 ] ] ] } },
{ "type": "Feature", "properties": { "h3": "871e036a2ffffff" }, "geometry": { "type": "Polygon", "coordinates": [ [ [ 19.077494139199871, 47.392695601504848 ], [ 19.077405491597759, 47.380293448859021 ], [ 19.094119788892311, 47.374267966489171 ], [ 19.110925899750406, 47.38064371388441 ], [ 19.111019919174129, 47.393046102680159 ], [ 19.094302455776383, 47.399072508437733 ], [ 19.077494139199871, 47.392695601504848 ] ] ] } },
{ "type": "Feature", "properties": { "h3": "871e036a3ffffff" }, "geometry": { "type": "Polygon", "coordinates": [ [ [ 19.111019919174129, 47.393046102680159 ], [ 19.110925899750406, 47.38064371388441 ], [ 19.12763851291276, 47.37461323624202 ], [ 19.144448304765994, 47.38098422279846 ], [ 19.144547696586862, 47.393386844973591 ], [ 19.127831924018537, 47.399418247720007 ], [ 19.111019919174129, 47.393046102680159 ] ] ] } },
{ "type": "Feature", "properties": { "h3": "871e036a4ffffff" }, "geometry": { "type": "Polygon", "coordinates": [ [ [ 19.077760252474111, 47.429890873071443 ], [ 19.07767151962436, 47.417494314351941 ], [ 19.094393833116591, 47.41147198327684 ], [ 19.11120804840818, 47.417845287434311 ], [ 19.111302158247501, 47.430242081910919 ], [ 19.09457667566371, 47.436265336980284 ], [ 19.077760252474111, 47.429890873071443 ] ] ] } },
{ "type": "Feature", "properties": { "h3": "871e036a5ffffff" }, "geometry": { "type": "Polygon", "coordinates": [ [ [ 19.111302158247501, 47.430242081910919 ], [ 19.11120804840818, 47.417845287434311 ], [ 19.127928676052719, 47.411817957127838 ], [ 19.14474657578225, 47.418186496095274 ], [ 19.144846063187401, 47.430583523559939 ], [ 19.128122273158247, 47.436611779576573 ], [ 19.111302158247501, 47.430242081910919 ] ] ] } },
{ "type": "Feature", "properties": { "h3": "871e036a6ffffff" }, "geometry": { "type": "Polygon", "coordinates": [ [ [ 19.060860999880283, 47.411116247250078 ], [ 19.060774996652672, 47.398717009749184 ], [ 19.077494139199871, 47.392695601504848 ], [ 19.094302455776383, 47.399072508437733 ], [ 19.094393833116591, 47.41147198327684 ], [ 19.07767151962436, 47.417494314351941 ], [ 19.060860999880283, 47.411116247250078 ] ] ] } },
{ "type": "Feature", "properties": { "h3": "871e036a8ffffff" }, "geometry": { "type": "Polygon", "coordinates": [ [ [ 19.17807744865307, 47.393717826678248 ], [ 19.177972683870507, 47.38131497389476 ], [ 19.194681893757124, 47.37527450730704 ], [ 19.211499014281856, 47.381635965485891 ], [ 19.211609152579712, 47.39403904610618 ], [ 19.194896796704654, 47.400080441218194 ], [ 19.17807744865307, 47.393717826678248 ] ] ] } },
{ "type": "Feature", "properties": { "h3": "871e036aaffffff" }, "geometry": { "type": "Polygon", "coordinates": [ [ [ 19.161159222125232, 47.37494875041353 ], [ 19.16105719292484, 47.362543217638816 ], [ 19.17776325494621, 47.356503678421056 ], [ 19.194574493898941, 47.362868745115208 ], [ 19.194681893757124, 47.37527450730704 ], [ 19.177972683870507, 47.38131497389476 ], [ 19.161159222125232, 47.37494875041353 ] ] ] } },
{ "type": "Feature", "properties": { "h3": "871e036acffffff" }, "geometry": { "type": "Polygon", "coordinates": [ [ [ 19.161465505891385, 47.412154167085895 ], [ 19.16136337859281, 47.399754225879384 ], [ 19.17807744865307, 47.393717826678248 ], [ 19.194896796704654, 47.400080441218194 ], [ 19.195004299827104, 47.4124806114528 ], [ 19.178287078939643, 47.418517938626835 ], [ 19.161465505891385, 47.412154167085895 ] ] ] } },
{ "type": "Feature", "properties": { "h3": "871e036adffffff" }, "geometry": { "type": "Polygon", "coordinates": [ [ [ 19.195004299827104, 47.4124806114528 ], [ 19.194896796704654, 47.400080441218194 ], [ 19.211609152579712, 47.39403904610618 ], [ 19.228432155551577, 47.400396892057685 ], [ 19.228545035046313, 47.412797288549307 ], [ 19.211829535065377, 47.418839613340012 ], [ 19.195004299827104, 47.4124806114528 ] ] ] } },
{ "type": "Feature", "properties": { "h3": "871e036aeffffff" }, "geometry": { "type": "Polygon", "coordinates": [ [ [ 19.144547696586862, 47.393386844973591 ], [ 19.144448304765994, 47.38098422279846 ], [ 19.161159222125232, 47.37494875041353 ], [ 19.177972683870507, 47.38131497389476 ], [ 19.17807744865307, 47.393717826678248 ], [ 19.16136337859281, 47.399754225879384 ], [ 19.144547696586862, 47.393386844973591 ] ] ] } },
{ "type": "Feature", "properties": { "h3": "871e036b4ffffff" }, "geometry": { "type": "Polygon", "coordinates": [ [ [ 19.010448662665482, 47.391965329430946 ], [ 19.010370756936194, 47.379563657394286 ], [ 19.027088387476919, 47.373548167120646 ], [ 19.043887103073835, 47.379933429447561 ], [ 19.043970379440815, 47.392335343173514 ], [ 19.027249569425567, 47.398351753389996 ], [ 19.010448662665482, 47.391965329430946 ] ] ] } },
{ "type": "Feature", "properties": { "h3": "871e036b5ffffff" }, "geometry": { "type": "Polygon", "coordinates": [ [ [ 19.043970379440815, 47.392335343173514 ], [ 19.043887103073835, 47.379933429447561 ], [ 19.060603072828275, 47.373912942870547 ], [ 19.077405491597759, 47.380293448859021 ], [ 19.077494139199871, 47.392695601504848 ], [ 19.060774996652672, 47.398717009749184 ], [ 19.043970379440815, 47.392335343173514 ] ] ] } },
{ "type": "Feature", "properties": { "h3": "871e03700ffffff" }, "geometry": { "type": "Polygon", "coordinates": [ [ [ 19.112717434080437, 47.615969636723889 ], [ 19.11262287020082, 47.603600913180784 ], [ 19.129383685819899, 47.597589360448303 ], [ 19.146242242519897, 47.603945602948663 ], [ 19.146342209921134, 47.616314557519658 ], [ 19.129578216960876, 47.622327039071465 ], [ 19.112717434080437, 47.615969636723889 ] ] ] } },
{ "type": "Feature", "properties": { "h3": "871e03702ffffff" }, "geometry": { "type": "Polygon", "coordinates": [ [ [ 19.0957680152253, 47.597239883765482 ], [ 19.095676197139571, 47.584868462377997 ], [ 19.112433833541409, 47.578857837291501 ], [ 19.129286467104954, 47.58521770645536 ], [ 19.129383685819899, 47.597589360448303 ], [ 19.11262287020082, 47.603600913180784 ], [ 19.0957680152253, 47.597239883765482 ] ] ] } },
{ "type": "Feature", "properties": { "h3": "871e03703ffffff" }, "geometry": { "type": "Polygon", "coordinates": [ [ [ 19.129383685819899, 47.597589360448303 ], [ 19.129286467104954, 47.58521770645536 ], [ 19.146042404025042, 47.57920206461106 ], [ 19.162898731984157, 47.585557147910592 ], [ 19.163001351902338, 47.597929031746297 ], [ 19.146242242519897, 47.603945602948663 ], [ 19.129383685819899, 47.597589360448303 ] ] ] } },
{ "type": "Feature", "properties": { "h3": "871e03706ffffff" }, "geometry": { "type": "Polygon", "coordinates": [ [ [ 19.079094666079868, 47.61561490726077 ], [ 19.079005505141939, 47.603246417507265 ], [ 19.0957680152253, 47.597239883765482 ], [ 19.11262287020082, 47.603600913180784 ], [ 19.112717434080437, 47.615969636723889 ], [ 19.095951739900023, 47.62197709757104 ], [ 19.079094666079868, 47.61561490726077 ] ] ] } },
{ "type": "Feature", "properties": { "h3": "871e03710ffffff" }, "geometry": { "type": "Polygon", "coordinates": [ [ [ 19.045222733819035, 47.57813998324405 ], [ 19.045139055892154, 47.565766103481792 ], [ 19.061895192185542, 47.559761420424017 ], [ 19.078738194085915, 47.566129692882733 ], [ 19.078827269158747, 47.578503809591176 ], [ 19.06206794503964, 47.584509417403197 ], [ 19.045222733819035, 47.57813998324405 ] ] ] } },
{ "type": "Feature", "properties": { "h3": "871e03711ffffff" }, "geometry": { "type": "Polygon", "coordinates": [ [ [ 19.078827269158747, 47.578503809591176 ], [ 19.078738194085915, 47.566129692882733 ], [ 19.095492649400324, 47.560119994268945 ], [ 19.112339360732346, 47.566483486399505 ], [ 19.112433833541409, 47.578857837291501 ], [ 19.095676197139571, 47.584868462377997 ], [ 19.078827269158747, 47.578503809591176 ] ] ] } },
{ "type": "Feature", "properties": { "h3": "871e03712ffffff" }, "geometry": { "type": "Polygon", "coordinates": [ [ [ 19.028299774587971, 47.559393052950092 ], [ 19.028218833996174, 47.54701648197296 ], [ 19.044971780608222, 47.54101272249396 ], [ 19.061808857346431, 47.547384610921576 ], [ 19.061895192185542, 47.559761420424017 ], [ 19.045139055892154, 47.565766103481792 ], [ 19.028299774587971, 47.559393052950092 ] ] ] } },
{ "type": "Feature", "properties": { "h3": "871e03713ffffff" }, "geometry": { "type": "Polygon", "coordinates": [ [ [ 19.061895192185542, 47.559761420424017 ], [ 19.061808857346431, 47.547384610921576 ], [ 19.078560129708922, 47.541375837607283 ], [ 19.095400919718426, 47.547742949004309 ], [ 19.095492649400324, 47.560119994268945 ], [ 19.078738194085915, 47.566129692882733 ], [ 19.061895192185542, 47.559761420424017 ] ] ] } },
{ "type": "Feature", "properties": { "h3": "871e03714ffffff" }, "geometry": { "type": "Polygon", "coordinates": [ [ [ 19.028542752342407, 47.596511521165318 ], [ 19.028461733748557, 47.584140573274688 ], [ 19.045222733819035, 47.57813998324405 ], [ 19.06206794503964, 47.584509417403197 ], [ 19.062154363081337, 47.59688060342306 ], [ 19.04539017030736, 47.602882117663135 ], [ 19.028542752342407, 47.596511521165318 ] ] ] } },
{ "type": "Feature", "properties": { "h3": "871e03715ffffff" }, "geometry": { "type": "Polygon", "coordinates": [ [ [ 19.062154363081337, 47.59688060342306 ], [ 19.06206794503964, 47.584509417403197 ], [ 19.078827269158747, 47.578503809591176 ], [ 19.095676197139571, 47.584868462377997 ], [ 19.0957680152253, 47.597239883765482 ], [ 19.079005505141939, 47.603246417507265 ], [ 19.062154363081337, 47.59688060342306 ] ] ] } },
{ "type": "Feature", "properties": { "h3": "871e03716ffffff" }, "geometry": { "type": "Polygon", "coordinates": [ [ [ 19.011620250455916, 47.577766360003068 ], [ 19.011541969073612, 47.565392719949102 ], [ 19.028299774587971, 47.559393052950092 ], [ 19.045139055892154, 47.565766103481792 ], [ 19.045222733819035, 47.57813998324405 ], [ 19.028461733748557, 47.584140573274688 ], [ 19.011620250455916, 47.577766360003068 ] ] ] } },
{ "type": "Feature", "properties": { "h3": "871e03718ffffff" }, "geometry": { "type": "Polygon", "coordinates": [ [ [ 19.129092123311022, 47.56046877274224 ], [ 19.128994998201971, 47.548091494479053 ], [ 19.14574288682001, 47.542072695029233 ], [ 19.162591069878605, 47.548430245622697 ], [ 19.162693590988162, 47.560807754120297 ], [ 19.145942532900513, 47.56682748229867 ], [ 19.129092123311022, 47.56046877274224 ] ] ] } },
{ "type": "Feature", "properties": { "h3": "871e03719ffffff" }, "geometry": { "type": "Polygon", "coordinates": [ [ [ 19.162693590988162, 47.560807754120297 ], [ 19.162591069878605, 47.548430245622697 ], [ 19.179337249004501, 47.542406433892239 ], [ 19.196189111821653, 47.548759200731233 ], [ 19.196297029493966, 47.561136936698524 ], [ 19.179547687651219, 47.567161678865894 ], [ 19.162693590988162, 47.560807754120297 ] ] ] } },
{ "type": "Feature", "properties": { "h3": "871e0371affffff" }, "geometry": { "type": "Polygon", "coordinates": [ [ [ 19.112150506082447, 47.541729162363154 ], [ 19.112056124212426, 47.529349190678516 ], [ 19.128800841484615, 47.523331318788685 ], [ 19.145643111833145, 47.529692491531954 ], [ 19.14574288682001, 47.542072695029233 ], [ 19.128994998201971, 47.548091494479053 ], [ 19.112150506082447, 47.541729162363154 ] ] ] } },
{ "type": "Feature", "properties": { "h3": "871e0371bffffff" }, "geometry": { "type": "Polygon", "coordinates": [ [ [ 19.14574288682001, 47.542072695029233 ], [ 19.145643111833145, 47.529692491531954 ], [ 19.162386126357173, 47.52366960907208 ], [ 19.179232080333385, 47.530026001347466 ], [ 19.179337249004501, 47.542406433892239 ], [ 19.162591069878605, 47.548430245622697 ], [ 19.14574288682001, 47.542072695029233 ] ] ] } },
{ "type": "Feature", "properties": { "h3": "871e0371cffffff" }, "geometry": { "type": "Polygon", "coordinates": [ [ [ 19.112433833541409, 47.578857837291501 ], [ 19.112339360732346, 47.566483486399505 ], [ 19.129092123311022, 47.56046877274224 ], [ 19.145942532900513, 47.56682748229867 ], [ 19.146042404025042, 47.57920206461106 ], [ 19.129286467104954, 47.58521770645536 ], [ 19.112433833541409, 47.578857837291501 ] ] ] } },
{ "type": "Feature", "properties": { "h3": "871e0371dffffff" }, "geometry": { "type": "Polygon", "coordinates": [ [ [ 19.146042404025042, 47.57920206461106 ], [ 19.145942532900513, 47.56682748229867 ], [ 19.162693590988162, 47.560807754120297 ], [ 19.179547687651219, 47.567161678865894 ], [ 19.179652957659396, 47.579536489834965 ], [ 19.162898731984157, 47.585557147910592 ], [ 19.146042404025042, 47.57920206461106 ] ] ] } },
{ "type": "Feature", "properties": { "h3": "871e0371effffff" }, "geometry": { "type": "Polygon", "coordinates": [ [ [ 19.095492649400324, 47.560119994268945 ], [ 19.095400919718426, 47.547742949004309 ], [ 19.112150506082447, 47.541729162363154 ], [ 19.128994998201971, 47.548091494479053 ], [ 19.129092123311022, 47.56046877274224 ], [ 19.112339360732346, 47.566483486399505 ], [ 19.095492649400324, 47.560119994268945 ] ] ] } },
{ "type": "Feature", "properties": { "h3": "871e03732ffffff" }, "geometry": { "type": "Polygon", "coordinates": [ [ [ 19.011855245491724, 47.614876029293839 ], [ 19.011776888652854, 47.602508015402471 ], [ 19.028542752342407, 47.596511521165318 ], [ 19.04539017030736, 47.602882117663135 ], [ 19.045473928894694, 47.61525037086588 ], [ 19.02870486761983, 47.621247788768109 ], [ 19.011855245491724, 47.614876029293839 ] ] ] } },
{ "type": "Feature", "properties": { "h3": "871e03733ffffff" }, "geometry": { "type": "Polygon", "coordinates": [ [ [ 19.045473928894694, 47.61525037086588 ], [ 19.04539017030736, 47.602882117663135 ], [ 19.062154363081337, 47.59688060342306 ], [ 19.079005505141939, 47.603246417507265 ], [ 19.079094666079868, 47.61561490726077 ], [ 19.062327282460814, 47.621617346888129 ], [ 19.045473928894694, 47.61525037086588 ] ] ] } },
{ "type": "Feature", "properties": { "h3": "871e03780ffffff" }, "geometry": { "type": "Polygon", "coordinates": [ [ [ 18.994253501242738, 47.484728838530003 ], [ 18.994178099581404, 47.472341283191135 ], [ 19.010916621607215, 47.466336199344646 ], [ 19.027733735496781, 47.472717750736884 ], [ 19.027814520422027, 47.485105548157897 ], [ 19.011072808044204, 47.491111552612004 ], [ 18.994253501242738, 47.484728838530003 ] ] ] } },
{ "type": "Feature", "properties": { "h3": "871e03781ffffff" }, "geometry": { "type": "Polygon", "coordinates": [ [ [ 19.027814520422027, 47.485105548157897 ], [ 19.027733735496781, 47.472717750736884 ], [ 19.044470598385303, 47.4667076604524 ], [ 19.061291429702347, 47.473084445763384 ], [ 19.061377598496449, 47.485472482501109 ], [ 19.044637551958015, 47.491483495118764 ], [ 19.027814520422027, 47.485105548157897 ] ] ] } },
{ "type": "Feature", "properties": { "h3": "871e03782ffffff" }, "geometry": { "type": "Polygon", "coordinates": [ [ [ 18.977364714228919, 47.46595496798647 ], [ 18.977292038931587, 47.45356473254089 ], [ 18.994027368769718, 47.447560568129241 ], [ 19.010838565941874, 47.453945720235552 ], [ 19.010916621607215, 47.466336199344646 ], [ 18.994178099581404, 47.472341283191135 ], [ 18.977364714228919, 47.46595496798647 ] ] ] } },
{ "type": "Feature", "properties": { "h3": "871e03783ffffff" }, "geometry": { "type": "Polygon", "coordinates": [ [ [ 19.010916621607215, 47.466336199344646 ], [ 19.010838565941874, 47.453945720235552 ], [ 19.027572243336071, 47.447936551113749 ], [ 19.044387161741934, 47.454316940445729 ], [ 19.044470598385303, 47.4667076604524 ], [ 19.027733735496781, 47.472717750736884 ], [ 19.010916621607215, 47.466336199344646 ] ] ] } },
{ "type": "Feature", "properties": { "h3": "871e03784ffffff" }, "geometry": { "type": "Polygon", "coordinates": [ [ [ 18.977582879998099, 47.503114463746272 ], [ 18.977510134750947, 47.490729834324434 ], [ 18.994253501242738, 47.484728838530003 ], [ 19.011072808044204, 47.491111552612004 ], [ 19.011150938839933, 47.503496425299701 ], [ 18.994404377134469, 47.509498341147108 ], [ 18.977582879998099, 47.503114463746272 ] ] ] } },
{ "type": "Feature", "properties": { "h3": "871e03785ffffff" }, "geometry": { "type": "Polygon", "coordinates": [ [ [ 19.011150938839933, 47.503496425299701 ], [ 19.011072808044204, 47.491111552612004 ], [ 19.027814520422027, 47.485105548157897 ], [ 19.044637551958015, 47.491483495118764 ], [ 19.044721068913141, 47.503868608307833 ], [ 19.02797616802469, 47.50987553454236 ], [ 19.011150938839933, 47.503496425299701 ] ] ] } },
{ "type": "Feature", "properties": { "h3": "871e03786ffffff" }, "geometry": { "type": "Polygon", "coordinates": [ [ [ 18.960694563796736, 47.484342355394737 ], [ 18.960624544783474, 47.471955044902991 ], [ 18.977364714228919, 47.46595496798647 ], [ 18.994178099581404, 47.472341283191135 ], [ 18.994253501242738, 47.484728838530003 ], [ 18.977510134750947, 47.490729834324434 ], [ 18.960694563796736, 47.484342355394737 ] ] ] } },
{ "type": "Feature", "properties": { "h3": "871e03788ffffff" }, "geometry": { "type": "Polygon", "coordinates": [ [ [ 19.078026621737223, 47.467069349542705 ], [ 19.077937803516839, 47.45467839140494 ], [ 19.094668140898769, 47.448659214365613 ], [ 19.111490468443183, 47.45503007136562 ], [ 19.111584668828588, 47.467421264867454 ], [ 19.094851159362449, 47.473441366512823 ], [ 19.078026621737223, 47.467069349542705 ] ] ] } },
{ "type": "Feature", "properties": { "h3": "871e03789ffffff" }, "geometry": { "type": "Polygon", "coordinates": [ [ [ 19.111584668828588, 47.467421264867454 ], [ 19.111490468443183, 47.45503007136562 ], [ 19.128219118259373, 47.449005891138434 ], [ 19.145045133689322, 47.455371978599267 ], [ 19.145144716816745, 47.467763404697585 ], [ 19.128412901633073, 47.473788511246326 ], [ 19.111584668828588, 47.467421264867454 ] ] ] } },
{ "type": "Feature", "properties": { "h3": "871e0378affffff" }, "geometry": { "type": "Polygon", "coordinates": [ [ [ 19.061119174983666, 47.448302767111464 ], [ 19.061033089032513, 47.435909126670694 ], [ 19.077760252474111, 47.429890873071443 ], [ 19.09457667566371, 47.436265336980284 ], [ 19.094668140898769, 47.448659214365613 ], [ 19.077937803516839, 47.45467839140494 ], [ 19.061119174983666, 47.448302767111464 ] ] ] } },
{ "type": "Feature", "properties": { "h3": "871e0378bffffff" }, "geometry": { "type": "Polygon", "coordinates": [ [ [ 19.094668140898769, 47.448659214365613 ], [ 19.09457667566371, 47.436265336980284 ], [ 19.111302158247501, 47.430242081910919 ], [ 19.128122273158247, 47.436611779576573 ], [ 19.128219118259373, 47.449005891138434 ], [ 19.111490468443183, 47.45503007136562 ], [ 19.094668140898769, 47.448659214365613 ] ] ] } },
{ "type": "Feature", "properties": { "h3": "871e0378cffffff" }, "geometry": { "type": "Polygon", "coordinates": [ [ [ 19.061377598496449, 47.485472482501109 ], [ 19.061291429702347, 47.473084445763384 ], [ 19.078026621737223, 47.467069349542705 ], [ 19.094851159362449, 47.473441366512823 ], [ 19.094942712619282, 47.485829639801224 ], [ 19.078204343644451, 47.491845660076564 ], [ 19.061377598496449, 47.485472482501109 ] ] ] } },
{ "type": "Feature", "properties": { "h3": "871e0378dffffff" }, "geometry": { "type": "Polygon", "coordinates": [ [ [ 19.094942712619282, 47.485829639801224 ], [ 19.094851159362449, 47.473441366512823 ], [ 19.111584668828588, 47.467421264867454 ], [ 19.128412901633073, 47.473788511246326 ], [ 19.1285098399355, 47.486177018318834 ], [ 19.111773160247107, 47.492198045736224 ], [ 19.094942712619282, 47.485829639801224 ] ] ] } },
{ "type": "Feature", "properties": { "h3": "871e0378effffff" }, "geometry": { "type": "Polygon", "coordinates": [ [ [ 19.044470598385303, 47.4667076604524 ], [ 19.044387161741934, 47.454316940445729 ], [ 19.061119174983666, 47.448302767111464 ], [ 19.077937803516839, 47.45467839140494 ], [ 19.078026621737223, 47.467069349542705 ], [ 19.061291429702347, 47.473084445763384 ], [ 19.044470598385303, 47.4667076604524 ] ] ] } },
{ "type": "Feature", "properties": { "h3": "871e03791ffffff" }, "geometry": { "type": "Polygon", "coordinates": [ [ [ 18.960484574089794, 47.447174819933601 ], [ 18.960414622387795, 47.434781906929267 ], [ 18.977146758208306, 47.428778660779834 ], [ 18.993952039596092, 47.435167409879519 ], [ 18.994027368769718, 47.447560568129241 ], [ 18.977292038931587, 47.45356473254089 ], [ 18.960484574089794, 47.447174819933601 ] ] ] } },
{ "type": "Feature", "properties": { "h3": "871e03793ffffff" }, "geometry": { "type": "Polygon", "coordinates": [ [ [ 18.943613077114449, 47.428388400642831 ], [ 18.943545846240905, 47.415992812631188 ], [ 18.960274786219603, 47.409990483571427 ], [ 18.977074152759975, 47.41638282594041 ], [ 18.977146758208306, 47.428778660779834 ], [ 18.960414622387795, 47.434781906929267 ], [ 18.943613077114449, 47.428388400642831 ] ] ] } },
{ "type": "Feature", "properties": { "h3": "871e03795ffffff" }, "geometry": { "type": "Polygon", "coordinates": [ [ [ 18.94381489906786, 47.46556396816387 ], [ 18.943747603517576, 47.453173979147181 ], [ 18.960484574089794, 47.447174819933601 ], [ 18.977292038931587, 47.45356473254089 ], [ 18.977364714228919, 47.46595496798647 ], [ 18.960624544783474, 47.471955044902991 ], [ 18.94381489906786, 47.46556396816387 ] ] ] } },
{ "type": "Feature", "properties": { "h3": "871e03798ffffff" }, "geometry": { "type": "Polygon", "coordinates": [ [ [ 19.010682529657295, 47.42915916074999 ], [ 19.010604549014026, 47.416763081849616 ], [ 19.027330199132908, 47.410750750783713 ], [ 19.044137012229527, 47.417133578575076 ], [ 19.04422036867691, 47.429529898768997 ], [ 19.02749153607575, 47.435543150385037 ], [ 19.010682529657295, 47.42915916074999 ] ] ] } },
{ "type": "Feature", "properties": { "h3": "871e03799ffffff" }, "geometry": { "type": "Polygon", "coordinates": [ [ [ 19.04422036867691, 47.429529898768997 ], [ 19.044137012229527, 47.417133578575076 ], [ 19.060860999880283, 47.411116247250078 ], [ 19.07767151962436, 47.417494314351941 ], [ 19.077760252474111, 47.429890873071443 ], [ 19.061033089032513, 47.435909126670694 ], [ 19.04422036867691, 47.429529898768997 ] ] ] } },
{ "type": "Feature", "properties": { "h3": "871e0379affffff" }, "geometry": { "type": "Polygon", "coordinates": [ [ [ 18.993801453655255, 47.41037549563282 ], [ 18.993726196864838, 47.397976741114697 ], [ 19.010448662665482, 47.391965329430946 ], [ 19.027249569425567, 47.398351753389996 ], [ 19.027330199132908, 47.410750750783713 ], [ 19.010604549014026, 47.416763081849616 ], [ 18.993801453655255, 47.41037549563282 ] ] ] } },
{ "type": "Feature", "properties": { "h3": "871e0379bffffff" }, "geometry": { "type": "Polygon", "coordinates": [ [ [ 19.027330199132908, 47.410750750783713 ], [ 19.027249569425567, 47.398351753389996 ], [ 19.043970379440815, 47.392335343173514 ], [ 19.060774996652672, 47.398717009749184 ], [ 19.060860999880283, 47.411116247250078 ], [ 19.044137012229527, 47.417133578575076 ], [ 19.027330199132908, 47.410750750783713 ] ] ] } },
{ "type": "Feature", "properties": { "h3": "871e0379cffffff" }, "geometry": { "type": "Polygon", "coordinates": [ [ [ 18.994027368769718, 47.447560568129241 ], [ 18.993952039596092, 47.435167409879519 ], [ 19.010682529657295, 47.42915916074999 ], [ 19.02749153607575, 47.435543150385037 ], [ 19.027572243336071, 47.447936551113749 ], [ 19.010838565941874, 47.453945720235552 ], [ 18.994027368769718, 47.447560568129241 ] ] ] } },
{ "type": "Feature", "properties": { "h3": "871e0379dffffff" }, "geometry": { "type": "Polygon", "coordinates": [ [ [ 19.027572243336071, 47.447936551113749 ], [ 19.02749153607575, 47.435543150385037 ], [ 19.04422036867691, 47.429529898768997 ], [ 19.061033089032513, 47.435909126670694 ], [ 19.061119174983666, 47.448302767111464 ], [ 19.044387161741934, 47.454316940445729 ], [ 19.027572243336071, 47.447936551113749 ] ] ] } },
{ "type": "Feature", "properties": { "h3": "871e0379effffff" }, "geometry": { "type": "Polygon", "coordinates": [ [ [ 18.977146758208306, 47.428778660779834 ], [ 18.977074152759975, 47.41638282594041 ], [ 18.993801453655255, 47.41037549563282 ], [ 19.010604549014026, 47.416763081849616 ], [ 19.010682529657295, 47.42915916074999 ], [ 18.993952039596092, 47.435167409879519 ], [ 18.977146758208306, 47.428778660779834 ] ] ] } },
{ "type": "Feature", "properties": { "h3": "871e037a0ffffff" }, "geometry": { "type": "Polygon", "coordinates": [ [ [ 18.977801255818811, 47.540257128219345 ], [ 18.977728440520803, 47.527878111426254 ], [ 18.994479851388149, 47.521880286957547 ], [ 19.011307275646182, 47.528260559113484 ], [ 19.011385481680833, 47.54063981877453 ], [ 18.994630872569456, 47.546638563919572 ], [ 18.977801255818811, 47.540257128219345 ] ] ] } },
{ "type": "Feature", "properties": { "h3": "871e037a1ffffff" }, "geometry": { "type": "Polygon", "coordinates": [ [ [ 19.011385481680833, 47.54063981877453 ], [ 19.011307275646182, 47.528260559113484 ], [ 19.028057030727027, 47.522257722037914 ], [ 19.044888183225339, 47.52863322272799 ], [ 19.044971780608222, 47.54101272249396 ], [ 19.028218833996174, 47.54701648197296 ], [ 19.011385481680833, 47.54063981877453 ] ] ] } },
{ "type": "Feature", "properties": { "h3": "871e037a2ffffff" }, "geometry": { "type": "Polygon", "coordinates": [ [ [ 18.960904755631898, 47.521493070078023 ], [ 18.960834669210151, 47.509111368716148 ], [ 18.977582879998099, 47.503114463746272 ], [ 18.994404377134469, 47.509498341147108 ], [ 18.994479851388149, 47.521880286957547 ], [ 18.977728440520803, 47.527878111426254 ], [ 18.960904755631898, 47.521493070078023 ] ] ] } },
{ "type": "Feature", "properties": { "h3": "871e037a3ffffff" }, "geometry": { "type": "Polygon", "coordinates": [ [ [ 18.994479851388149, 47.521880286957547 ], [ 18.994404377134469, 47.509498341147108 ], [ 19.011150938839933, 47.503496425299701 ], [ 19.02797616802469, 47.50987553454236 ], [ 19.028057030727027, 47.522257722037914 ], [ 19.011307275646182, 47.528260559113484 ], [ 18.994479851388149, 47.521880286957547 ] ] ] } },
{ "type": "Feature", "properties": { "h3": "871e037a4ffffff" }, "geometry": { "type": "Polygon", "coordinates": [ [ [ 18.961115149887199, 47.558626944181086 ], [ 18.9610449959596, 47.546250858541597 ], [ 18.977801255818811, 47.540257128219345 ], [ 18.994630872569456, 47.546638563919572 ], [ 18.994706419520387, 47.559014893608882 ], [ 18.977946956544425, 47.565009544056139 ], [ 18.961115149887199, 47.558626944181086 ] ] ] } },
{ "type": "Feature", "properties": { "h3": "871e037a5ffffff" }, "geometry": { "type": "Polygon", "coordinates": [ [ [ 18.994706419520387, 47.559014893608882 ], [ 18.994630872569456, 47.546638563919572 ], [ 19.011385481680833, 47.54063981877453 ], [ 19.028218833996174, 47.54701648197296 ], [ 19.028299774587971, 47.559393052950092 ], [ 19.011541969073612, 47.565392719949102 ], [ 18.994706419520387, 47.559014893608882 ] ] ] } },
{ "type": "Feature", "properties": { "h3": "871e037a6ffffff" }, "geometry": { "type": "Polygon", "coordinates": [ [ [ 18.944219125905686, 47.539864652617808 ], [ 18.944151700721683, 47.527485881455092 ], [ 18.960904755631898, 47.521493070078023 ], [ 18.977728440520803, 47.527878111426254 ], [ 18.977801255818811, 47.540257128219345 ], [ 18.9610449959596, 47.546250858541597 ], [ 18.944219125905686, 47.539864652617808 ] ] ] } },
{ "type": "Feature", "properties": { "h3": "871e037a8ffffff" }, "geometry": { "type": "Polygon", "coordinates": [ [ [ 19.061636270777264, 47.522625373540095 ], [ 19.061550019020608, 47.510242947123416 ], [ 19.078293247358744, 47.504231011001984 ], [ 19.09512590725349, 47.510600577130809 ], [ 19.095217548659164, 47.522983239704025 ], [ 19.078471140377236, 47.528996100499931 ], [ 19.061636270777264, 47.522625373540095 ] ] ] } },
{ "type": "Feature", "properties": { "h3": "871e037a9ffffff" }, "geometry": { "type": "Polygon", "coordinates": [ [ [ 19.095217548659164, 47.522983239704025 ], [ 19.09512590725349, 47.510600577130809 ], [ 19.111867451309319, 47.504583631632435 ], [ 19.128703809846282, 47.510948422824029 ], [ 19.128800841484615, 47.523331318788685 ], [ 19.112056124212426, 47.529349190678516 ], [ 19.095217548659164, 47.522983239704025 ] ] ] } },
{ "type": "Feature", "properties": { "h3": "871e037aaffffff" }, "geometry": { "type": "Polygon", "coordinates": [ [ [ 19.044721068913141, 47.503868608307833 ], [ 19.044637551958015, 47.491483495118764 ], [ 19.061377598496449, 47.485472482501109 ], [ 19.078204343644451, 47.491845660076564 ], [ 19.078293247358744, 47.504231011001984 ], [ 19.061550019020608, 47.510242947123416 ], [ 19.044721068913141, 47.503868608307833 ] ] ] } },
{ "type": "Feature", "properties": { "h3": "871e037abffffff" }, "geometry": { "type": "Polygon", "coordinates": [ [ [ 19.078293247358744, 47.504231011001984 ], [ 19.078204343644451, 47.491845660076564 ], [ 19.094942712619282, 47.485829639801224 ], [ 19.111773160247107, 47.492198045736224 ], [ 19.111867451309319, 47.504583631632435 ], [ 19.09512590725349, 47.510600577130809 ], [ 19.078293247358744, 47.504231011001984 ] ] ] } },
{ "type": "Feature", "properties": { "h3": "871e037acffffff" }, "geometry": { "type": "Polygon", "coordinates": [ [ [ 19.044971780608222, 47.54101272249396 ], [ 19.044888183225339, 47.52863322272799 ], [ 19.061636270777264, 47.522625373540095 ], [ 19.078471140377236, 47.528996100499931 ], [ 19.078560129708922, 47.541375837607283 ], [ 19.061808857346431, 47.547384610921576 ], [ 19.044971780608222, 47.54101272249396 ] ] ] } },
{ "type": "Feature", "properties": { "h3": "871e037adffffff" }, "geometry": { "type": "Polygon", "coordinates": [ [ [ 19.078560129708922, 47.541375837607283 ], [ 19.078471140377236, 47.528996100499931 ], [ 19.095217548659164, 47.522983239704025 ], [ 19.112056124212426, 47.529349190678516 ], [ 19.112150506082447, 47.541729162363154 ], [ 19.095400919718426, 47.547742949004309 ], [ 19.078560129708922, 47.541375837607283 ] ] ] } },
{ "type": "Feature", "properties": { "h3": "871e037aeffffff" }, "geometry": { "type": "Polygon", "coordinates": [ [ [ 19.028057030727027, 47.522257722037914 ], [ 19.02797616802469, 47.50987553454236 ], [ 19.044721068913141, 47.503868608307833 ], [ 19.061550019020608, 47.510242947123416 ], [ 19.061636270777264, 47.522625373540095 ], [ 19.044888183225339, 47.52863322272799 ], [ 19.028057030727027, 47.522257722037914 ] ] ] } },
{ "type": "Feature", "properties": { "h3": "871e037b0ffffff" }, "geometry": { "type": "Polygon", "coordinates": [ [ [ 18.910453067401793, 47.502321212173364 ], [ 18.910391091375388, 47.489937077574332 ], [ 18.927137730913749, 47.483946100548479 ], [ 18.943949554917733, 47.490338342043174 ], [ 18.944016915238102, 47.502722725435284 ], [ 18.927267067103429, 47.508714619046927 ], [ 18.910453067401793, 47.502321212173364 ] ] ] } },
{ "type": "Feature", "properties": { "h3": "871e037b1ffffff" }, "geometry": { "type": "Polygon", "coordinates": [ [ [ 18.944016915238102, 47.502722725435284 ], [ 18.943949554917733, 47.490338342043174 ], [ 18.960694563796736, 47.484342355394737 ], [ 18.977510134750947, 47.490729834324434 ], [ 18.977582879998099, 47.503114463746272 ], [ 18.960834669210151, 47.509111368716148 ], [ 18.944016915238102, 47.502722725435284 ] ] ] } },
{ "type": "Feature", "properties": { "h3": "871e037b3ffffff" }, "geometry": { "type": "Polygon", "coordinates": [ [ [ 18.927137730913749, 47.483946100548479 ], [ 18.927073093921642, 47.471559037668165 ], [ 18.94381489906786, 47.46556396816387 ], [ 18.960624544783474, 47.471955044902991 ], [ 18.960694563796736, 47.484342355394737 ], [ 18.943949554917733, 47.490338342043174 ], [ 18.927137730913749, 47.483946100548479 ] ] ] } },
{ "type": "Feature", "properties": { "h3": "871e037b5ffffff" }, "geometry": { "type": "Polygon", "coordinates": [ [ [ 18.927331766320943, 47.521096073197334 ], [ 18.927267067103429, 47.508714619046927 ], [ 18.944016915238102, 47.502722725435284 ], [ 18.960834669210151, 47.509111368716148 ], [ 18.960904755631898, 47.521493070078023 ], [ 18.944151700721683, 47.527485881455092 ], [ 18.927331766320943, 47.521096073197334 ] ] ] } },
{ "type": "Feature", "properties": { "h3": "871e1cb68ffffff" }, "geometry": { "type": "Polygon", "coordinates": [ [ [ 18.943411449097987, 47.39119604278595 ], [ 18.943344282807953, 47.378794862433871 ], [ 18.960065199895357, 47.372789366259674 ], [ 18.976856475933978, 47.379184134462356 ], [ 18.976929011633981, 47.391585562040881 ], [ 18.960204901731878, 47.397591974696716 ], [ 18.943411449097987, 47.39119604278595 ] ] ] } },
{ "type": "Feature", "properties": { "h3": "871e1cb69ffffff" }, "geometry": { "type": "Polygon", "coordinates": [ [ [ 18.976929011633981, 47.391585562040881 ], [ 18.976856475933978, 47.379184134462356 ], [ 18.993575755586114, 47.373173640992903 ], [ 19.010370756936194, 47.379563657394286 ], [ 19.010448662665482, 47.391965329430946 ], [ 18.993726196864838, 47.397976741114697 ], [ 18.976929011633981, 47.391585562040881 ] ] ] } },
{ "type": "Feature", "properties": { "h3": "871e1cb6bffffff" }, "geometry": { "type": "Polygon", "coordinates": [ [ [ 18.960065199895357, 47.372789366259674 ], [ 18.959995382525058, 47.360385268181652 ], [ 18.976711474204162, 47.354375691758712 ], [ 18.993500571074641, 47.360769296873634 ], [ 18.993575755586114, 47.373173640992903 ], [ 18.976856475933978, 47.379184134462356 ], [ 18.960065199895357, 47.372789366259674 ] ] ] } },
{ "type": "Feature", "properties": { "h3": "871e1cb6cffffff" }, "geometry": { "type": "Polygon", "coordinates": [ [ [ 18.926750219589838, 47.409595716392467 ], [ 18.926685706779555, 47.39719745592847 ], [ 18.943411449097987, 47.39119604278595 ], [ 18.960204901731878, 47.397591974696716 ], [ 18.960274786219603, 47.409990483571427 ], [ 18.943545846240905, 47.415992812631188 ], [ 18.926750219589838, 47.409595716392467 ] ] ] } },
{ "type": "Feature", "properties": { "h3": "871e1cb6dffffff" }, "geometry": { "type": "Polygon", "coordinates": [ [ [ 18.960274786219603, 47.409990483571427 ], [ 18.960204901731878, 47.397591974696716 ], [ 18.976929011633981, 47.391585562040881 ], [ 18.993726196864838, 47.397976741114697 ], [ 18.993801453655255, 47.41037549563282 ], [ 18.977074152759975, 47.41638282594041 ], [ 18.960274786219603, 47.409990483571427 ] ] ] } }
]
}
